STARLINK-3875           
1 52483C 22049AJ  26097.19215278 -.00032263  00000+0 -20236-2 0   979
2 52483  53.2162 281.1686 0001166  85.0542 228.6587 15.08846610    11
STARLINK-3887           
1 52484C 22049AK  26097.23312500 -.00030869  00000+0 -19358-2 0   974
2 52484  53.2157 290.9839 0001359  92.7871 228.6616 15.08851463    13
STARLINK-3913           
1 52485C 22049AL  26097.21576389 -.00021733  00000+0 -13628-2 0   974
2 52485  53.2163 281.0624 0001304  89.9371  32.1731 15.08849109    17
STARLINK-3918           
1 52486C 22049AM  26097.16368056 -.00036316  00000+0 -22775-2 0   975
2 52486  53.2161 291.2959 0001343  85.5855 258.4643 15.08853190    12
STARLINK-3902           
1 52487C 22049AN  26097.23034722 -.00017955  00000+0 -11260-2 0   979
2 52487  53.2163 281.1028 0001322  91.4281  49.8575 15.08842586    19
STARLINK-3892           
1 52488C 22049AP  26097.08520833 -.00005114  00000+0 -32070-3 0   973
2 52488  53.2158 291.6514 0001413  82.3523 215.2191 15.08839879    13
STARLINK-3923           
1 52489C 22049AQ  26097.21020833 -.00034972  00000+0 -21932-2 0   972
2 52489  53.2159 291.0881 0001324  88.7749 128.1414 15.08853082    19
STARLINK-3914           
1 52490C 22049AR  26097.22340278 -.00023389  00000+0 -14668-2 0   971
2 52490  53.2160 281.0270 0001404  86.8384 156.7882 15.08845402    10
STARLINK-3908           
1 52491C 22049AS  26097.05048611  .00003922  00000+0  24588-3 0   971
2 52491  53.2158 281.8056 0001415  78.0619 265.7841 15.08841473    14
STARLINK-3916           
1 52492C 22049AT  26097.23659722 -.00016858  00000+0 -10575-2 0   977
2 52492  53.2153 280.9660 0001310  85.0091 270.3110 15.08833117    14
STARLINK-3883           
1 52493C 22049AU  26097.18312500 -.00033284  00000+0 -20874-2 0   977
2 52493  53.2160 281.2082 0001364  84.3698 280.3521 15.08851486    15
STARLINK-3857           
1 52494C 22049AV  26097.17687500 -.00034844  00000+0 -21853-2 0   973
2 52494  53.2150 281.2344 0001303  94.5725 356.1685 15.08851258    13
STARLINK-3871           
1 52496C 22049AX  26097.07479167 -.00015995  00000+0 -10035-2 0   978
2 52496  53.2160 276.6967 0001470  93.8981 329.5117 15.08827352    18
STARLINK-3884           
1 52497C 22049AY  26097.04562500  .00012973  00000+0  81343-3 0   972
2 52497  53.2149 281.8236 0001286  82.3902 335.0356 15.08834054    18
STARLINK-3925           
1 52498C 22049AZ  26097.22270833 -.00007457  00000+0 -46768-3 0   973
2 52498  53.2151 271.0285 0001220  92.2711 342.5740 15.08834621    13
STARLINK-3894           
1 52499C 22049BA  26097.14770833 -.00041521  00000+0 -26039-2 0   978
2 52499  53.2148 281.3651 0001192  91.3356 180.8913 15.08856637    10
STARLINK-3866           
1 52500C 22049BB  26097.19770833 -.00023766  00000+0 -14905-2 0   976
2 52500  53.2151 271.1407 0001269  91.6769 227.2763 15.08847180    11
STARLINK-3907           
1 52501C 22049BC  26097.21923611 -.00023897  00000+0 -14985-2 0   977
2 52501  53.2159 280.8449 0001341  89.8119 331.2644 15.08850261    10
STARLINK-3912           
1 52502C 22049BD  26097.13520833 -.00037902  00000+0 -23781-2 0   974
2 52502  53.2149 271.4516 0001353  87.4347 271.9075 15.08836579    15
STARLINK-3861           
1 52503C 22049BE  26097.07895833 -.00021070  00000+0 -13219-2 0   977
2 52503  53.2150 271.5616 0001115  99.2027  14.4151 15.08831357    16
STARLINK-3952           
1 52534C 22051B   26097.20743056  .00628350  00000+0  66169-3 0   973
2 52534  53.2126 343.6637 0002252 170.0158  56.2687 16.09289122    10
STARLINK-3958           
1 52535C 22051C   26097.19840278  .00044338  00000+0  27802-2 0   974
2 52535  53.2166   1.1414 0001442  73.4051 314.3289 15.08817746    15
STARLINK-3964           
1 52536C 22051D   26097.06645833 -.00007382  00000+0 -46287-3 0   970
2 52536  53.2165   1.7330 0001279  91.5661 319.0878 15.08843424    12
STARLINK-3897           
1 52537C 22051E   26097.15256944  .00018401  00000+0  11539-2 0   975
2 52537  53.2171   1.1545 0001270  88.3198 190.4519 15.08828486    16
STARLINK-3933           
1 52538C 22051F   26097.23173611  .00032759  00000+0  20534-2 0   971
2 52538  53.2165   0.9919 0001239  93.2261 195.6614 15.08835907    12
STARLINK-3757           
1 52539C 22051G   26097.19770833  .00047380  00000+0  29715-2 0   972
2 52539  53.2165   1.1446 0001255  86.2839 357.6788 15.08810020    13
STARLINK-3940           
1 52540C 22051H   26097.05187500  .00005198  00000+0  32611-3 0   973
2 52540  53.2172   1.8390 0001383  85.6267 345.8272 15.08815066    10
STARLINK-3845           
1 52541C 22051J   26097.19076389 -.00004096  00000+0 -25683-3 0   970
2 52541  53.2167   6.1764 0001371  75.0133 223.7091 15.08843887    15
STARLINK-3937           
1 52542C 22051K   26097.22687500  .00033223  00000+0  20843-2 0   972
2 52542  53.2173   1.0139 0001165  86.1810 256.2815 15.08805591    14
STARLINK-3926           
1 52543C 22051L   26097.17409722  .00049714  00000+0  31183-2 0   976
2 52543  53.2168   1.2502 0001192  91.0735 264.5878 15.08804149    15
STARLINK-3944           
1 52544C 22051M   26097.04284722 -.00030940  00000+0 -19407-2 0   972
2 52544  53.2166   6.8503 0001519  94.2454 160.5738 15.08845011    15
STARLINK-3948           
1 52546C 22051P   26097.20673611  .00041748  00000+0  26177-2 0   979
2 52546  53.2172   0.8712 0001452  73.5362 314.4434 15.08820218    19
STARLINK-3931           
1 52548C 22051R   26097.16229167  .00041605  00000+0  26090-2 0   975
2 52548  53.2176   1.3035 0001370  81.9258  29.5552 15.08816539    11
STARLINK-3935           
1 52549C 22051S   26097.22479167  .00037396  00000+0  23446-2 0   974
2 52549  53.2173   1.0255 0001329  76.9057 274.2465 15.08826325    11
STARLINK-3965           
1 52550C 22051T   26097.16159722 -.00093305  00000+0 -58498-2 0   970
2 52550  53.2178   1.3062 0001463  79.9995 347.7940 15.08891910    16
STARLINK-3969           
1 52551C 22051U   26097.08104167 -.00000544  00000+0 -34133-4 0   970
2 52551  53.2179   1.6691 0001419  65.7458 244.1050 15.08849410    17
STARLINK-3966           
1 52552C 22051V   26097.18243056  .00053732  00000+0  33692-2 0   975
2 52552  53.2178   1.3668 0001473  73.3864  87.4500 15.08813215    16
STARLINK-3858           
1 52553C 22051W   26097.09006944 -.00003283  00000+0 -20589-3 0   979
2 52553  53.2168   1.2888 0001401  86.1417 113.0483 15.08831395    11
STARLINK-3770           
1 52554C 22051X   26097.21993056  .00036617  00000+0  22963-2 0   975
2 52554  53.2165   6.0436 0001304  89.0026  68.2353 15.08817149    19
STARLINK-3943           
1 52557C 22051AA  26097.14354167  .00007190  00000+0  45086-3 0   970
2 52557  53.2172   1.3868 0001476  70.6606 338.9326 15.08834534    11
STARLINK-3953           
1 52559C 22051AC  26097.18104167  .00046820  00000+0  29354-2 0   971
2 52559  53.2169 351.4037 0001297  79.4117 108.7689 15.08822382    14
STARLINK-3956           
1 52560C 22051AD  26097.17965278  .00028239  00000+0  17713-2 0   970
2 52560  53.2176 351.2263 0001347  83.4442 177.4216 15.08813567    19
STARLINK-3955           
1 52561C 22051AE  26097.15604167  .00029484  00000+0  18491-2 0   973
2 52561  53.2176   6.3336 0001371  85.9010 144.1101 15.08818566    12
STARLINK-3957           
1 52562C 22051AF  26097.20465278  .00014368  00000+0  90092-3 0   971
2 52562  53.2175 351.1131 0001295  76.1725   0.5292 15.08833786    13
STARLINK-3942           
1 52563C 22051AG  26097.24493056  .00032074  00000+0  20111-2 0   979
2 52563  53.2170   5.9322 0001578  79.0393 254.0623 15.08825523    16
STARLINK-3959           
1 52564C 22051AH  26097.21020833  .00051081  00000+0  32017-2 0   973
2 52564  53.2175   6.0991 0001598  75.0926 104.1017 15.08829661    15
STARLINK-3911           
1 52565C 22051AJ  26097.16368056  .00031573  00000+0  19803-2 0   972
2 52565  53.2179 351.2980 0001381  77.6637 116.3955 15.08813669    17
STARLINK-3938           
1 52566C 22051AK  26097.12965278  .00032086  00000+0  20122-2 0   974
2 52566  53.2176   6.4501 0001656  70.7180 155.8766 15.08820091    10
STARLINK-3929           
1 52567C 22051AL  26097.22062500  .00026831  00000+0  16822-2 0   975
2 52567  53.2175 351.0418 0001544  68.9895 114.5155 15.08831550    10
STARLINK-3930           
1 52568C 22051AM  26097.12895833  .00010604  00000+0  66500-3 0   978
2 52568  53.2171 351.4515 0001492  80.4285  24.9074 15.08829460    14
STARLINK-3927           
1 52569C 22051AN  26097.20187500  .00035895  00000+0  22508-2 0   971
2 52569  53.2175 351.1251 0001537  69.3280  32.2787 15.08822017    18
STARLINK-3901           
1 52574C 22051AQ  26097.14284722  .00023723  00000+0  14876-2 0   970
2 52574  53.2175 351.3899 0001293  78.5088  82.3109 15.08825454    13
STARLINK-3932           
1 52576C 22051AS  26097.22687500 -.00005461  00000+0 -34245-3 0   976
2 52576  53.2161 351.0133 0001338  84.2798 268.0080 15.08837929    11
STARLINK-3836           
1 52577C 22051AT  26097.11020833  .00011656  00000+0  73098-3 0   975
2 52577  53.2175   6.5364 0001532  70.5722  90.3469 15.08828411    19
STARLINK-3833           
1 52578C 22051AU  26097.17687500 -.00007664  00000+0 -48047-3 0   974
2 52578  53.2174   6.2375 0001424  77.4401  65.8014 15.08850534    12
STARLINK-3893           
1 52579C 22051AV  26097.16368056  .00040725  00000+0  25538-2 0   978
2 52579  53.2170   6.2985 0001302  77.3373  54.1875 15.08818082    16
STARLINK-3919           
1 52580C 22051AW  26097.16993056  .00055406  00000+0  34763-2 0   976
2 52580  53.2170   6.2782 0001369  93.9931  46.3427 15.08790309    17
STARLINK-3915           
1 52581C 22051AX  26097.18173611  .00026976  00000+0  16898-2 0   975
2 52581  53.2164 351.2180 0001332  62.6186  69.5799 15.08863302    14
STARLINK-3895           
1 52583C 22051AZ  26097.19076389  .00019382  00000+0  12154-2 0   976
2 52583  53.2163 351.1762 0001317  78.6610 122.5740 15.08827898    18
